ESTCUBE 1               
1 39161U 13021C   21233.65069900  .00000166  00000-0  33900-4 0  9995
2 39161  97.9361 313.3384 0008575 308.7037  51.3404 14.72515606445349
FENGYUN 3C              
1 39260U 13052A   21233.78547869 -.00000018  00000-0  11624-4 0  9994
2 39260  98.4937 271.4894 0012213  61.3821 298.8577 14.15875151409510
CASSIOPE                
1 39265U 13055A   21233.46904274  .00003203  00000-0  86828-4 0  9990
2 39265  80.9639 223.7829 0648228 122.8637 243.6662 14.32644700409300
ZACUBE-1 (TSHEPISOSAT)  
1 39417U 13066B   21233.75975172  .00000296  00000-0  43278-4 0  9999
2 39417  97.5977 214.7204 0057313 308.1422  51.4634 14.81570548418749
CINEMA-3 (KHUSAT-2)     
1 39426U 13066L   21233.28035047  .00000141  00000-0  29582-4 0  9996
2 39426  97.7594 182.0319 0105371 117.0706 244.1300 14.69708044415175
TRITON-1                
1 39427U 13066M   21233.80750886  .00000191  00000-0  38084-4 0  9992
2 39427  97.7780 178.3923 0114048 141.5748 219.3651 14.68282744415009
DELFI-N3XT              
1 39428U 13066N   21233.30655683  .00000326  00000-0  58983-4 0  9997
2 39428  97.7822 176.3992 0119982 156.1160 204.5678 14.68071977414483
GOMX-1                  
1 39430U 13066Q   21233.72416673  .00000148  00000-0  36107-4 0  9996
2 39430  97.8103 153.0423 0148956 269.4557  88.9578 14.59657483412563
BRITE-PL1 (LEM)         
1 39431U 13066R   21233.44920841  .00000073  00000-0  25176-4 0  9994
2 39431  97.7418 108.1408 0203463  77.6969 284.6923 14.47158115408971
ICUBE-1                 
1 39432U 13066S   21233.52593114  .00000506  00000-0  56177-4 0  9999
2 39432  97.4740 248.1267 0031636 182.9253 177.1786 14.90951473420009
HUMSAT-D                
1 39433U 13066T   21233.52857683  .00000622  00000-0  64489-4 0  9998
2 39433  97.4680 255.2099 0030876 161.1871 199.0498 14.92987953420451
VELOX-PII               
1 39438U 13066Y   21233.34871918  .00000267  00000-0  42247-4 0  9993
2 39438  97.6479 205.0296 0070199 355.2293   4.8241 14.78263501416669
FIRST-MOVE              
1 39439U 13066Z   21233.40674753  .00000634  00000-0  82407-4 0  9999
2 39439  97.6024 215.9921 0063281 306.7698  52.7717 14.82710521417570
CUBEBUG-2 (LO-74)       
1 39440U 13066AA  21233.38519786  .00000318  00000-0  50671-4 0  9999
2 39440  97.6815 199.5447 0080563  25.8762 334.6444 14.76290912416009
NEE-02 KRYSAOR          
1 39441U 13066AB  21233.62967697  .00000224  00000-0  38648-4 0  9991
2 39441  97.6913 197.0931 0082410  36.4291 324.2488 14.75217012416987
FUNCUBE-1 (AO-73)       
1 39444U 13066AE  21233.70366343  .00000355  00000-0  49537-4 0  9998
2 39444  97.5880 217.0428 0056181 298.1272  61.4271 14.82489901417693
HINCUBE                 
1 39445U 13066AF  21233.17903974  .00000356  00000-0  49783-4 0  9991
2 39445  97.5894 216.3897 0056248 301.8243  57.7502 14.82320432416973
UWE-3                   
1 39446U 13066AG  21233.65229634  .00000332  00000-0  50249-4 0  9992
2 39446  97.6422 206.6602 0069373 348.0579  11.8985 14.78834033416738
AIST-1 (RS-41)          
1 39492U 13078C   21233.77986194  .00000221  00000-0  21294-4 0  9995
2 39492  82.4204 163.2516 0020862  23.2487 336.9685 14.88060333415216
SPROUT                  
1 39770U 14029E   21233.54802660  .00000914  00000-0  10415-3 0  9992
2 39770  97.9199 344.7872 0008917   3.3447 356.7838 14.88578004393025
UNISAT-6                
1 40012U 14033C   21233.24704835  .00000221  00000-0  39671-4 0  9997
2 40012  97.6728  72.2504 0059283  51.6420 309.0096 14.74357323385746
BUGSAT-1 (TITA)         
1 40014U 14033E   21233.91368468  .00001059  00000-0  99774-4 0  9991
2 40014  98.1151 215.7771 0030271 310.5144  49.3449 14.95815175391357
DUCHIFAT-1              
1 40021U 14033M   21233.27938881  .00000389  00000-0  44767-4 0  9997
2 40021  97.9743 174.1719 0011753 316.5453  43.4838 14.91428025389941
NANOSATC-BR1            
1 40024U 14033Q   21233.28449489  .00000424  00000-0  49318-4 0  9999
2 40024  97.9523 168.9593 0011236 323.0543  36.9899 14.90513854389252
QB50P1                  
1 40025U 14033R   21233.58268108  .00000317  00000-0  39257-4 0  9992
2 40025  97.9327 164.4451 0011653 330.9391  29.1176 14.89504616389627
DTUSAT-2                
1 40030U 14033W   21233.73953773  .00000346  00000-0  42729-4 0  9994
2 40030  97.9149 160.9728 0011062 327.0365  33.0160 14.89049340389541
QB50P2                  
1 40032U 14033Y   21233.77177587  .00000306  00000-0  38502-4 0  9991
2 40032  97.9155 161.0127 0011000 327.8747  32.1798 14.89008227389534
POLYITAN-1              
1 40042U 14033AJ  21233.77695019  .00000424  00000-0  50725-4 0  9999
2 40042  97.9421 165.5050 0013700 320.4166  39.6050 14.89323419389545
TIGRISAT                
1 40043U 14033AK  21233.80432854  .00000155  00000-0  29855-4 0  9991
2 40043  97.6692  74.1630 0060902  47.7255 312.9095 14.74569479385764
AISAT                   
1 40054U 14034B   21233.37942795  .00000498  00000-0  75781-4 0  9995
2 40054  98.3302  28.6672 0012552 190.2914 169.8040 14.78505991385128
CANX-4                  
1 40055U 14034C   21233.33688192  .00000110  00000-0  24410-4 0  9994
2 40055  98.3152  16.3304 0013230 229.8984 130.1065 14.75077441384474
CANX-5                  
1 40056U 14034D   21233.34203083  .00000113  00000-0  24802-4 0  9996
2 40056  98.3152  16.3208 0013242 230.1272 129.8772 14.75069955375286
VELOX-I                 
1 40057U 14034E   21233.85459288  .00000333  00000-0  53662-4 0  9993
2 40057  98.3358  30.2276 0010308 202.5049 157.5716 14.78238420385207
METEOR-M 2              
1 40069U 14037A   21233.79293995 -.00000040  00000-0  67204-6 0  9998
2 40069  98.4577 259.9036 0006844 108.6200 251.5714 14.20686615369310
DX1                     
1 40071U 14037C   21233.82899739  .00000089  00000-0  18925-4 0  9999
2 40071  98.4473  82.0095 0007962 190.7709 169.3339 14.81526463384975
UKUBE-1                 
1 40074U 14037F   21233.89144494  .00000281  00000-0  40396-4 0  9991
2 40074  98.4236  93.3539 0004468 159.8827 200.2550 14.84607443385611
FIREBIRD 3              
1 40377U 15003B   21233.41110998  .00002126  00000-0  79689-4 0  9998
2 40377  99.1075  28.3039 0115575 315.5037  43.6955 15.22886993362676
FIREBIRD 4              
1 40378U 15003C   21233.71380135  .00002276  00000-0  84844-4 0  9999
2 40378  99.1082  28.8224 0115626 314.2727  44.9061 15.22941661362738
GRIFEX                  
1 40379U 15003D   21233.64863259  .00001455  00000-0  61836-4 0  9999
2 40379  99.1043  17.4904 0127110 348.6437  11.1929 15.18422249362083
CP10 (EXOCUBE)          
1 40380U 15003E   21233.68110465  .00001273  00000-0  57599-4 0  9998
2 40380  99.1051  11.6857 0133291   8.2504 352.0872 15.16042889361706
DEORBITSAIL             
1 40719U 15032E   21233.49173567  .00000439  00000-0  68602-4 0  9997
2 40719  97.8194 116.3848 0014650 256.9445 103.0130 14.77441558329584
NUDT-PHONESAT           
1 40900U 15049B   21233.73007799  .00003379  00000-0  13041-3 0  9999
2 40900  97.4194 247.4296 0009702 268.1626 205.0954 15.26947014328784
XW-2A                   
1 40903U 15049E   21233.90451095  .00003274  00000-0  69233-4 0  9992
2 40903  97.2314 288.1876 0013555 131.1527  40.7377 15.45790571332902
XW-2C                   
1 40906U 15049H   21233.78747685  .00000987  00000-0  53489-4 0  9998
2 40906  97.4880 235.3333 0013605 327.2150  30.9891 15.16884146327460
XW-2D                   
1 40907U 15049J   21233.77754031  .00001141  00000-0  60711-4 0  9990
2 40907  97.4872 235.1398 0012742 323.1543  89.7208 15.17224421327507
LILACSAT-2              
1 40908U 15049K   21233.83179780  .00000289  00000-0  19271-4 0  9997
2 40908  97.5068 232.9426 0015105 339.8179 140.7912 15.14521734327120
XW-2E                   
1 40909U 15049L   21233.83382036  .00001464  00000-0  71558-4 0  9990
2 40909  97.4664 239.2889 0011567 307.3780 174.7657 15.19773709327861
XW-2F                   
1 40910U 15049M   21233.85817223  .00001586  00000-0  78360-4 0  9998
2 40910  97.4741 238.3961 0012699 306.9387 172.6692 15.19274598327650
XW-2B                   
1 40911U 15049N   21233.79735043  .00001126  00000-0  60077-4 0  9997
2 40911  97.4869 235.8330 0012716 324.6922 161.3345 15.17139309327395
KAITUO 1B               
1 40912U 15049P   21233.74498544  .00001699  00000-0  77724-4 0  9997
2 40912  97.4446 242.6660 0012443 274.7472 200.6239 15.21844471328120
TIANWANG 1A (TW-1A)     
1 40928U 15051D   21233.64672567  .00005312  00000-0  10828-3 0  9992
2 40928  97.0740 257.0006 0011028  60.5318  86.1728 15.46585465331768
LAPAN-A2                
1 40931U 15052B   21232.23359203  .00000700  00000-0  82612-5 0  9998
2 40931   5.9947 157.4838 0013651 228.0946 131.8133 14.76684722318746
LQSAT                   
1 40958U 15057A   21233.68090029  .00000029  00000-0  11925-4 0  9992
2 40958  97.7971 287.5607 0017428 202.3022 157.7430 14.73189572315841
ATHENOXAT 1             
1 41168U 15077C   21233.42477906  .00002564  00000-0  93909-4 0  9991
2 41168  14.9888 143.2239 0011385   0.7972 146.4408 15.15956018314654
GALASSIA                
1 41170U 15077E   21233.37343492  .00002576  00000-0  93897-4 0  9999
2 41170  14.9883 134.1767 0012007  28.7676 331.3306 15.16142498314562
VELOX-II                
1 41171U 15077F   21233.52176991  .00001907  00000-0  68067-4 0  9993
2 41171  14.9904 193.1809 0008557 256.7867 103.1499 15.12716780314092
CHUBUSAT-2              
1 41338U 16012B   21233.39098034  .00000429  00000-0  26393-4 0  9998
2 41338  31.0026 132.9585 0013456  57.1263 303.0666 15.00576586302360
CHUBUSAT-3              
1 41339U 16012C   21233.87331254  .00000385  00000-0  22962-4 0  9995
2 41339  31.0111 127.0500 0013350  68.8826 291.3237 15.00720741302430
HORYU-4                 
1 41340U 16012D   21233.34970341  .00000669  00000-0  43289-4 0  9995
2 41340  31.0048 113.1428 0013528  97.7877 262.4295 15.01969767302550
